ONEWEB-0113             
1 48050U 21025J   21146.79356587 -.00360705  00000-0 -12320+0 0  9991
2 48050  87.5917 329.2391 0009174  58.8863 301.3235 14.38704653 10722
ONEWEB-0112             
1 48051U 21025K   21147.00001157 -.01404285  00000-0 -46525+0 0  9994
2 48051  87.6306 329.1434 0008611  58.7119 343.0423 14.41292308 10760
ONEWEB-0156             
1 48052U 21025L   21147.00001157  .00011007  00000-0  36021-2 0  9991
2 48052  87.6057 329.1979 0012136  54.8610 138.0622 14.38362746 10738
ONEWEB-0161             
1 48053U 21025M   21147.00001157 -.01451437  00000-0 -68377+0 0  9996
2 48053  87.5416 329.2392 0009861  59.8525 245.4029 14.23399074 10707
ONEWEB-0158             
1 48054U 21025N   21147.00001157 -.01456649  00000-0 -51819+0 0  9990
2 48054  87.6362 329.1834 0010706  63.7407  15.7151 14.37853369 10769
ONEWEB-0157             
1 48055U 21025P   21147.00001157 -.01452905  00000-0 -55733+0 0  9991
2 48055  87.6218 329.3082 0010028  47.9028  83.7260 14.34037273 10768
ONEWEB-0162             
1 48056U 21025Q   21147.00001157 -.01386536  00000-0 -66264+0 0  9999
2 48056  87.5368 329.2513 0009285  50.6595 214.3216 14.23077123 10708
ONEWEB-0155             
1 48057U 21025R   21146.50001157 -.01380570  00000-0 -40048+0 0  9998
2 48057  87.6580 329.2736 0012377  57.9449 154.7274 14.47714393  1813
ONEWEB-0149             
1 48058U 21025S   21147.00001157 -.01424477  00000-0 -64052+0 0  9991
2 48058  87.5561 329.2328 0011588  69.9772   3.9493 14.25768007 10707
ONEWEB-0148             
1 48059U 21025T   21147.00001157 -.01334522  00000-0 -48001+0 0  9999
2 48059  87.6127 329.1654 0010928  50.3369 167.0935 14.37570186 10762
ONEWEB-0160             
1 48060U 21025U   21146.50001157 -.01376547  00000-0 -61456+0 0  9997
2 48060  87.5476 329.3791 0007795  65.1008 161.6768 14.26629748  1813
ONEWEB-0163             
1 48061U 21025V   21147.00001157 -.01374370  00000-0 -39789+0 0  9990
2 48061  87.6579 329.1457 0012427  49.6984 234.6005 14.47793984 10805
ONEWEB-0159             
1 48062U 21025W   21147.00001157 -.01396503  00000-0 -49211+0 0  9994
2 48062  87.6298 329.2015 0007830  41.9346 261.6113 14.38200011 10774
ONEWEB-0164             
1 48063U 21025X   21147.00001157 -.01426190  00000-0 -59108+0 0  9997
2 48063  87.5795 329.2213 0012515  51.5267 216.3272 14.29996503 10750
ONEWEB-0167             
1 48064U 21025Y   21147.00001157 -.01319683  00000-0 -51453+0 0  9991
2 48064  87.5592 329.2275 0010932  69.3495 117.3656 14.33442618 10726
ONEWEB-0166             
1 48065U 21025Z   21147.00001157 -.01408147  00000-0 -46624+0 0  9990
2 48065  87.6498 329.1749 0012132  50.1794 159.7567 14.41310749 10800
ONEWEB-0151             
1 48066U 21025AA  21147.00001157 -.01398949  00000-0 -50869+0 0  9995
2 48066  87.6201 329.2081 0008523  46.9170  13.5777 14.36624264 10762
ONEWEB-0170             
1 48067U 21025AB  21145.99786860 -.00212701  00000-0 -76541-1 0  9990
2 48067  87.5503 329.5077 0010132  67.1214 293.1052 14.35388501 10579
ONEWEB-0168             
1 48068U 21025AC  21147.00001157 -.01414431  00000-0 -64769+0 0  9996
2 48068  87.5485 329.2291 0009068  63.3354 139.1803 14.24805427 10698
ONEWEB-0173             
1 48069U 21025AD  21147.00001157 -.01361336  00000-0 -41853+0 0  9991
2 48069  87.6584 329.1273 0007804  58.4358 213.2991 14.44879947 10786
ONEWEB-0171             
1 48070U 21025AE  21147.00001157 -.01444331  00000-0 -50018+0 0  9993
2 48070  87.6407 329.1821 0011792  54.6732 209.5147 14.39163842 10792
ONEWEB-0172             
1 48071U 21025AF  21147.00001157  .00010006  00000-0  19574-2 0  9994
2 48071  87.5607 329.0646 0008237  48.9788 243.9648 14.62758087 10789
ONEWEB-0174             
1 48072U 21025AG  21147.00001157 -.01400155  00000-0 -39776+0 0  9999
2 48072  87.6874 329.1123 0012689  33.2660 189.7920 14.48750486 10835
ONEWEB-0175             
1 48073U 21025AH  21147.00001157 -.01446505  00000-0 -65633+0 0  9990
2 48073  87.5409 329.2381 0009399  67.7590 223.3837 14.25360852 10712
ONEWEB-0177             
1 48074U 21025AJ  21147.00001157 -.01358755  00000-0 -38089+0 0  9995
2 48074  87.6629 329.1384 0012375  35.9312 247.2508 14.49847095 10813
ONEWEB-0178             
1 48075U 21025AK  21146.50001157 -.01378536  00000-0 -36214+0 0  9997
2 48075  87.7052 329.2608 0013129  36.4457 108.5864 14.52940542  1841
ONEWEB-0108             
1 48076U 21025AL  21147.00001157 -.01417688  00000-0 -45621+0 0  9998
2 48076  87.6607 329.1536 0012128  37.0788  39.9144 14.42744291 10804
ONEWEB-0169             
1 48077U 21025AM  21147.00001157 -.01397332  00000-0 -56863+0 0  9992
2 48077  87.5855 329.2250 0012266  48.1876  35.7322 14.30869727 10695
ONEWEB-0176             
1 48210U 21031A   21146.50001157 -.01187677  00000-0 -82985-1 0  9997
2 48210  87.4742 302.4494 0008318 153.0105 136.6825 15.08515400  1809
ONEWEB-0184             
1 48211U 21031B   21146.50001157 -.01198168  00000-0 -97167-1 0  9993
2 48211  87.4551 302.4820 0010667 140.4413 189.8812 15.02998709  1765
ONEWEB-0179             
1 48212U 21031C   21146.83334491 -.01069122  00000-0 -70917-1 0  9991
2 48212  87.4805 302.3405 0010466 157.9553  93.6760 15.10068825  4731
ONEWEB-0180             
1 48213U 21031D   21146.83334491 -.01062878  00000-0 -10638+0 0  9995
2 48213  87.4424 302.4316 0008849 145.6425  45.5673 14.94572213  4714
ONEWEB-0218             
1 48214U 21031E   21146.83334491 -.01035071  00000-0 -62989-1 0  9999
2 48214  87.4932 302.2936 0012879 129.1467 162.0879 15.13501810  4749
ONEWEB-0209             
1 48215U 21031F   21146.83334491 -.01075702  00000-0 -71908-1 0  9996
2 48215  87.4888 302.3312 0010397 149.1303 275.0956 15.09806177  4743
ONEWEB-0198             
1 48216U 21031G   21146.83334491 -.01101501  00000-0 -81223-1 0  9995
2 48216  87.4686 302.3379 0007793 141.8859  87.1228 15.06315139  4715
ONEWEB-0189             
1 48217U 21031H   21146.83334491 -.01089359  00000-0 -91556-1 0  9992
2 48217  87.4760 302.3915 0011688 146.0880 120.0503 15.01338959  4728
ONEWEB-0196             
1 48218U 21031J   21146.83334491 -.01112192  00000-0 -10947+0 0  9998
2 48218  87.4281 302.4051 0008226 149.7307  98.8478 14.95375391  4712
ONEWEB-0183             
1 48219U 21031K   21146.83334491 -.01095953  00000-0 -81251-1 0  9992
2 48219  87.4699 302.3466 0007570 144.8352  70.0320 15.06103409  4734
ONEWEB-0185             
1 48220U 21031L   21146.83334491 -.01101448  00000-0 -88896-1 0  9993
2 48220  87.4753 302.3798 0010467 135.2608 241.1342 15.02917332  4720
ONEWEB-0187             
1 48221U 21031M   21146.83334491 -.01093509  00000-0 -96711-1 0  9997
2 48221  87.4409 302.3864 0011056 153.4580 353.8249 14.99419343  4720
ONEWEB-0192             
1 48222U 21031N   21146.83334491 -.01099343  00000-0 -11237+0 0  9998
2 48222  87.4138 302.4182 0008804 141.0676  17.3269 14.93853029  4710
ONEWEB-0219             
1 48223U 21031P   21146.83334491 -.01023092  00000-0 -62302-1 0  9998
2 48223  87.4949 302.2895 0012685 130.0151 144.4004 15.13445527  4743
ONEWEB-0202             
1 48224U 21031Q   21146.83334491 -.01066386  00000-0 -68941-1 0  9997
2 48224  87.4893 302.3167 0011601 146.1239 347.1771 15.10974137  4730
ONEWEB-0204             
1 48225U 21031R   21146.83334491 -.01107180  00000-0 -84025-1 0  9997
2 48225  87.4666 302.3574 0007931 137.6034  39.6662 15.05263071  4734
ONEWEB-0205             
1 48226U 21031S   21146.83334491 -.01091453  00000-0 -93797-1 0  9999
2 48226  87.4491 302.3770 0012386 148.5246  58.4774 15.00489862  4719
ONEWEB-0206             
1 48227U 21031T   21146.83334491 -.01113283  00000-0 -10764+0 0  9997
2 48227  87.4297 302.3941 0008488 148.8403 140.4044 14.96070269  4713
ONEWEB-0182             
1 48228U 21031U   21146.83334491  .00062309  00000-0  38871-2 0  9999
2 48228  87.4671 302.3348 0007498 146.2868 127.8593 15.09223669  4737
ONEWEB-0186             
1 48229U 21031V   21146.83334491 -.01000039  00000-0 -62522-1 0  9994
2 48229  87.4708 302.2914 0009490 131.8705 303.7945 15.12486537  4736
ONEWEB-0181             
1 48230U 21031W   21146.83334491 -.01093275  00000-0 -98699-1 0  9994
2 48230  87.4412 302.3844 0010754 152.5970 320.0690 14.98634945  4710
ONEWEB-0188             
1 48231U 21031X   21146.83334491 -.01104694  00000-0 -11734+0 0  9996
2 48231  87.3948 302.4067 0008950 136.6283 289.5536 14.92351942  4701
ONEWEB-0220             
1 48232U 21031Y   21146.83334491 -.01059391  00000-0 -66865-1 0  9997
2 48232  87.4900 302.3032 0012782 134.9312  65.0392 15.11801220  4735
ONEWEB-0165             
1 48233U 21031Z   21146.83334491 -.01063171  00000-0 -69381-1 0  9995
2 48233  87.4926 302.3154 0011122 147.4117 319.7102 15.10634387  4733
ONEWEB-0199             
1 48234U 21031AA  21146.50001157 -.01201701  00000-0 -92450-1 0  9996
2 48234  87.4569 302.4649 0008438 132.0359 331.4832 15.05005889  1798
ONEWEB-0203             
1 48235U 21031AB  21146.83334491 -.01105013  00000-0 -96829-1 0  9996
2 48235  87.4476 302.3876 0011992 148.0577  57.1836 14.99791592  4711
ONEWEB-0197             
1 48236U 21031AC  21146.83334491 -.01097433  00000-0 -10568+0 0  9997
2 48236  87.4302 302.3990 0008512 157.0697 170.2562 14.96181352  4700
ONEWEB-0194             
1 48237U 21031AD  21146.83334491 -.01056250  00000-0 -71619-1 0  9996
2 48237  87.4818 302.3247 0008638 152.7293 208.5334 15.09261433  4729
ONEWEB-0193             
1 48238U 21031AE  21146.50001157 -.01194224  00000-0 -94281-1 0  9995
2 48238  87.4530 302.4701 0009879 134.4735 263.8286 15.04004115  1794
ONEWEB-0191             
1 48239U 21031AF  21146.83334491 -.01108133  00000-0 -10571+0 0  9994
2 48239  87.4319 302.3947 0009428 154.7620 208.4966 14.96566907  4705
ONEWEB-0195             
1 48240U 21031AG  21146.83334491 -.01126307  00000-0 -11685+0 0  9996
2 48240  87.4164 302.4191 0009151 135.5245 343.9958 14.93343163  4700
